AMOS-4                  
1 39237U 13045A   26169.87404181  .00000001  00000+0  00000+0 0  9993
2 39237   0.0145 290.8157 0002607 130.5243 225.4313  1.00272017 46977
AEHF-3 (USA 246)        
1 39256U 13050A   26169.49558742  .00000021  00000+0  00000+0 0  9993
2 39256   5.2965  67.1725 0087809 188.0237  65.6729  1.00272922 45664
ASTRA 2E                
1 39285U 13056A   26169.85286626  .00000144  00000+0  00000+0 0  9996
2 39285   0.0742 315.6479 0002785 144.4110 142.5670  1.00273556 46435
FM-6                    
1 39360U 13058A   26169.51541316  .00000000  00000+0  00000+0 0  9996
2 39360   0.0333  48.8344 0003221 148.7006 138.4746  1.00287718 46082
RADUGA-1M 3             
1 39375U 13062A   26169.79836441  .00000144  00000+0  00000+0 0  9992
2 39375   5.9627  72.3351 0001804 267.8367 249.2637  1.00273348 46125
SES-8                   
1 39460U 13071A   26169.80315715 -.00000276  00000+0  00000+0 0  9992
2 39460   0.0221 290.1698 0002676 157.2999 203.6993  1.00272164 44448
INMARSAT 5-F1           
1 39476U 13073A   26169.85138992  .00000021  00000+0  00000+0 0  9993
2 39476   0.0166  23.9281 0000692 301.4101 310.8696  1.00271760 45596
TKSAT-1 (TUPAC KATARI)  
1 39481U 13075A   26169.80620397 -.00000200  00000+0  00000+0 0  9991
2 39481   0.0507 197.2539 0002557 233.2462  39.5451  1.00268179 45624
EXPRESS-AM5             
1 39487U 13077A   26169.77994387 -.00000287  00000+0  00000+0 0  9993
2 39487   0.0134 295.7255 0000320  49.5278 342.5664  1.00269202 46378
GSAT-14                 
1 39498U 14001A   26169.79995832 -.00000083  00000+0  00000+0 0  9995
2 39498   0.0410  95.4454 0000880 175.5159 358.0388  1.00271149 45391
THAICOM 6               
1 39500U 14002A   26169.83918277 -.00000127  00000+0  00000+0 0  9992
2 39500   0.0705 108.4061 0004346   2.3229 176.9479  1.00272230 45476
TDRS 12                 
1 39504U 14004A   26169.81547735 -.00000278  00000+0  00000+0 0  9990
2 39504   3.9793  19.1341 0003100 196.6847 303.7712  1.00266251 44293
ABS-2                   
1 39508U 14006A   26169.87502094 -.00000092  00000+0  00000+0 0  9995
2 39508   0.0110 308.8957 0003753 124.3500 223.7805  1.00270734 45293
ATHENA-FIDUS            
1 39509U 14006B   26169.86058632  .00000148  00000+0  00000+0 0  9990
2 39509   0.0334  91.4295 0001308   2.0062 161.2725  1.00273491 45101
TURKSAT 4A              
1 39522U 14007A   26169.86389219  .00000140  00000+0  00000+0 0  9996
2 39522   0.0703 287.2150 0001272  34.3010 298.5945  1.00273631 44981
EXPRESS-AT1             
1 39612U 14010A   26169.85152140  .00000016  00000+0  00000+0 0  9992
2 39612   0.2628  85.5570 0003774  44.2565 146.3336  1.00303594 44838
EXPRESS-AT2             
1 39613U 14010B   26169.83255785  .00000073  00000+0  00000+0 0  9993
2 39613   0.0192 329.2606 0000494 318.9986 334.5060  1.00270682 44516
AMAZONAS 4A             
1 39616U 14011A   26169.80897733 -.00000258  00000+0  00000+0 0  9995
2 39616   0.0547 176.4612 0003932 297.4516  10.3491  1.00269512 44733
ASTRA 5B                
1 39617U 14011B   26169.84955750  .00000131  00000+0  00000+0 0  9993
2 39617   0.0663 310.0482 0001949 147.2225 139.1677  1.00272928 44684
IRNSS-1B                
1 39635U 14017A   26169.76323579  .00000112  00000+0  00000+0 0  9997
2 39635  28.9195 240.3764 0023149 189.5120 167.0529  1.00276864 44803
LUCH-5V                 
1 39727U 14023A   26169.80346045 -.00000277  00000+0  00000+0 0  9997
2 39727   5.1369  69.7269 0001864  50.0917 171.1841  1.00273727 44374
KAZSAT-3                
1 39728U 14023B   26169.80217463  .00000054  00000+0  00000+0 0  9991
2 39728   0.0131  21.8404 0000336  11.8246 220.6501  1.00274665 42473
EUTELSAT 3B             
1 39773U 14030A   26169.82418024  .00000013  00000+0  00000+0 0  9992
2 39773   0.0676  20.8489 0003988  65.3792 120.6117  1.00271304 44083
ASIASAT 8 (AMOS-7)      
1 40107U 14046A   26169.81196009 -.00000339  00000+0  00000+0 0  9999
2 40107   0.0196  58.9383 0001323  23.7024 222.0120  1.00273177102160
ASIASAT 6               
1 40141U 14052A   26169.82295402 -.00000368  00000+0  00000+0 0  9994
2 40141   0.0341  80.9257 0000725  22.5415 219.7638  1.00270122 43091
OPTUS 10                
1 40146U 14054A   26169.78323721 -.00000154  00000+0  00000+0 0  9995
2 40146   0.1278 345.0691 0001947 102.0504 257.8762  1.00270595 43043
MEASAT-3B               
1 40147U 14054B   26169.84169610 -.00000248  00000+0  00000+0 0  9992
2 40147   0.0284  23.0578 0002982  65.2669 213.2606  1.00270681 42924
HIMAWARI-8              
1 40267U 14060A   26169.78020387 -.00000282  00000+0  00000+0 0  9990
2 40267   0.0121  39.6849 0001079  52.2554 236.6131  1.00271184 42770
IRNSS-1C                
1 40269U 14061A   26169.83996277 -.00000169  00000+0  00000+0 0  9993
2 40269   6.5216  88.9001 0022698   2.6408 200.8800  1.00269070 42702
INTELSAT 30 (IS-30)     
1 40271U 14062A   26169.51957318 -.00000157  00000+0  00000+0 0  9992
2 40271   0.0277  53.4911 0001428 324.6893 340.5674  1.00270086  6802
ARSAT 1                 
1 40272U 14062B   26169.80941066 -.00000266  00000+0  00000+0 0  9999
2 40272   0.0116 353.0993 0001709  88.1659  45.3516  1.00270362 42642
EUTELSAT 53A            
1 40277U 14064A   26169.86325448  .00000092  00000+0  00000+0 0  9998
2 40277   0.0170 316.8970 0000994 235.9542  78.0162  1.00271435 41581
