OBJECT_NAME,OBJECT_ID,EPOCH,MEAN_MOTION,ECCENTRICITY,INCLINATION,RA_OF_ASC_NODE,ARG_OF_PERICENTER,MEAN_ANOMALY,EPHEMERIS_TYPE,CLASSIFICATION_TYPE,NORAD_CAT_ID,ELEMENT_SET_NO,REV_AT_EPOCH,BSTAR,MEAN_MOTION_DOT,MEAN_MOTION_DDOT
AMOS-4,2013-045A,2026-06-18T20:58:37.212384,1.00272017,.0002607,0.0145,290.8157,130.5243,225.4313,0,U,39237,999,4697,0,.1E-7,0
AEHF-3 (USA 246),2013-050A,2026-06-18T11:53:38.753088,1.00272922,.0087809,5.2965,67.1725,188.0237,65.6729,0,U,39256,999,4566,0,.21E-6,0
ASTRA 2E,2013-056A,2026-06-18T20:28:07.644864,1.00273556,.0002785,0.0742,315.6479,144.4110,142.5670,0,U,39285,999,4643,0,.144E-5,0
FM-6,2013-058A,2026-06-18T12:22:11.697024,1.00287718,.0003221,0.0333,48.8344,148.7006,138.4746,0,U,39360,999,4608,0,0,0
RADUGA-1M 3,2013-062A,2026-06-18T19:09:38.685024,1.00273348,.0001804,5.9627,72.3351,267.8367,249.2637,0,U,39375,999,4612,0,.144E-5,0
SES-8,2013-071A,2026-06-18T19:16:32.777760,1.00272164,.0002676,0.0221,290.1698,157.2999,203.6993,0,U,39460,999,4444,0,-.276E-5,0
INMARSAT 5-F1,2013-073A,2026-06-18T20:26:00.089088,1.00271760,.0000692,0.0166,23.9281,301.4101,310.8696,0,U,39476,999,4559,0,.21E-6,0
TKSAT-1 (TUPAC KATARI),2013-075A,2026-06-18T19:20:56.023008,1.00268179,.0002557,0.0507,197.2539,233.2462,39.5451,0,U,39481,999,4562,0,-.2E-5,0
EXPRESS-AM5,2013-077A,2026-06-18T18:43:07.150368,1.00269202,.000032,0.0134,295.7255,49.5278,342.5664,0,U,39487,999,4637,0,-.287E-5,0
GSAT-14,2014-001A,2026-06-18T19:11:56.398848,1.00271149,.000088,0.0410,95.4454,175.5159,358.0388,0,U,39498,999,4539,0,-.83E-6,0
THAICOM 6,2014-002A,2026-06-18T20:08:25.391328,1.00272230,.0004346,0.0705,108.4061,2.3229,176.9479,0,U,39500,999,4547,0,-.127E-5,0
TDRS 12,2014-004A,2026-06-18T19:34:17.243040,1.00266251,.00031,3.9793,19.1341,196.6847,303.7712,0,U,39504,999,4429,0,-.278E-5,0
ABS-2,2014-006A,2026-06-18T21:00:01.809216,1.00270734,.0003753,0.0110,308.8957,124.3500,223.7805,0,U,39508,999,4529,0,-.92E-6,0
ATHENA-FIDUS,2014-006B,2026-06-18T20:39:14.658048,1.00273491,.0001308,0.0334,91.4295,2.0062,161.2725,0,U,39509,999,4510,0,.148E-5,0
TURKSAT 4A,2014-007A,2026-06-18T20:44:00.285216,1.00273631,.0001272,0.0703,287.2150,34.3010,298.5945,0,U,39522,999,4498,0,.14E-5,0
EXPRESS-AT1,2014-010A,2026-06-18T20:26:11.448960,1.00303594,.0003774,0.2628,85.5570,44.2565,146.3336,0,U,39612,999,4483,0,.16E-6,0
EXPRESS-AT2,2014-010B,2026-06-18T19:58:52.998240,1.00270682,.0000494,0.0192,329.2606,318.9986,334.5060,0,U,39613,999,4451,0,.73E-6,0
AMAZONAS 4A,2014-011A,2026-06-18T19:24:55.641312,1.00269512,.0003932,0.0547,176.4612,297.4516,10.3491,0,U,39616,999,4473,0,-.258E-5,0
ASTRA 5B,2014-011B,2026-06-18T20:23:21.768000,1.00272928,.0001949,0.0663,310.0482,147.2225,139.1677,0,U,39617,999,4468,0,.131E-5,0
IRNSS-1B,2014-017A,2026-06-18T18:19:03.572256,1.00276864,.0023149,28.9195,240.3764,189.5120,167.0529,0,U,39635,999,4480,0,.112E-5,0
LUCH-5V,2014-023A,2026-06-18T19:16:58.982880,1.00273727,.0001864,5.1369,69.7269,50.0917,171.1841,0,U,39727,999,4437,0,-.277E-5,0
KAZSAT-3,2014-023B,2026-06-18T19:15:07.888032,1.00274665,.0000336,0.0131,21.8404,11.8246,220.6501,0,U,39728,999,4247,0,.54E-6,0
EUTELSAT 3B,2014-030A,2026-06-18T19:46:49.172736,1.00271304,.0003988,0.0676,20.8489,65.3792,120.6117,0,U,39773,999,4408,0,.13E-6,0
ASIASAT 8 (AMOS-7),2014-046A,2026-06-18T19:29:13.351776,1.00273177,.0001323,0.0196,58.9383,23.7024,222.0120,0,U,40107,999,10216,0,-.339E-5,0
ASIASAT 6,2014-052A,2026-06-18T19:45:03.227328,1.00270122,.0000725,0.0341,80.9257,22.5415,219.7638,0,U,40141,999,4309,0,-.368E-5,0
OPTUS 10,2014-054A,2026-06-18T18:47:51.694944,1.00270595,.0001947,0.1278,345.0691,102.0504,257.8762,0,U,40146,999,4304,0,-.154E-5,0
MEASAT-3B,2014-054B,2026-06-18T20:12:02.543040,1.00270681,.0002982,0.0284,23.0578,65.2669,213.2606,0,U,40147,999,4292,0,-.248E-5,0
HIMAWARI-8,2014-060A,2026-06-18T18:43:29.614368,1.00271184,.0001079,0.0121,39.6849,52.2554,236.6131,0,U,40267,999,4277,0,-.282E-5,0
IRNSS-1C,2014-061A,2026-06-18T20:09:32.783328,1.00269070,.0022698,6.5216,88.9001,2.6408,200.8800,0,U,40269,999,4270,0,-.169E-5,0
INTELSAT 30 (IS-30),2014-062A,2026-06-18T12:28:11.122752,1.00270086,.0001428,0.0277,53.4911,324.6893,340.5674,0,U,40271,999,680,0,-.157E-5,0
ARSAT 1,2014-062B,2026-06-18T19:25:33.081024,1.00270362,.0001709,0.0116,353.0993,88.1659,45.3516,0,U,40272,999,4264,0,-.266E-5,0
EUTELSAT 53A,2014-064A,2026-06-18T20:43:05.187072,1.00271435,.0000994,0.0170,316.8970,235.9542,78.0162,0,U,40277,999,4158,0,.92E-6,0
